OBJECT_NAME,OBJECT_ID,EPOCH,MEAN_MOTION,ECCENTRICITY,INCLINATION,RA_OF_ASC_NODE,ARG_OF_PERICENTER,MEAN_ANOMALY,EPHEMERIS_TYPE,CLASSIFICATION_TYPE,NORAD_CAT_ID,ELEMENT_SET_NO,REV_AT_EPOCH,BSTAR,MEAN_MOTION_DOT,MEAN_MOTION_DDOT
STARLINK-34163,2025-101Q,2026-06-30T00:37:11.390592,15.27586230,.00015176,42.9980,83.7141,273.2307,86.8371,0,U,64008,999,6423,.59733587E-3,.16215E-3,0
STARLINK-34113,2025-101S,2026-06-30T18:04:00.896160,15.27582142,.00025278,43.0032,79.7136,282.8336,77.2233,0,U,64010,999,6434,.61444938E-3,.16686E-3,0
STARLINK-34193,2025-101T,2026-06-30T00:46:26.588352,15.27582592,.00006657,42.9990,83.7635,254.9109,105.1669,0,U,64011,999,6423,.84375421E-3,.23031E-3,0
STARLINK-34078,2025-101U,2026-06-30T18:38:57.544224,15.27590550,.00012151,43.0015,79.0271,257.9427,102.1289,0,U,64012,999,6435,.69139123E-3,.18818E-3,0
STARLINK-34182,2025-101V,2026-06-30T18:06:33.723072,15.27594684,.00011159,42.9975,76.2568,204.3763,155.7036,0,U,64013,999,6438,.90746339E-3,.24805E-3,0
STARLINK-34192,2025-101W,2026-06-30T18:15:07.069536,15.27582012,.00023282,43.0046,79.7703,276.8405,83.2181,0,U,64014,999,6434,.68094303E-3,.18525E-3,0
STARLINK-34016,2025-101Y,2026-06-30T18:40:48.686592,15.27596252,.00020943,43.0062,79.0413,283.4479,76.6139,0,U,64016,999,6435,.97469545E-3,.2667E-3,0
STARLINK-34162,2025-101AA,2026-06-30T17:38:05.913024,15.27562393,.00014753,42.9971,79.5643,268.2718,91.7965,0,U,64018,999,6434,.10404245E-2,.28464E-3,0
STARLINK-34155,2025-101AB,2026-06-30T00:33:29.142144,15.27592887,.0000902,42.9975,83.6875,266.2911,93.7838,0,U,64019,999,6423,.57882988E-3,.15706E-3,0
STARLINK-34141,2025-101AC,2026-06-30T17:43:39.417024,15.27591706,.00014244,42.9995,79.5940,261.4016,98.6674,0,U,64020,999,6434,.50898429E-3,.13775E-3,0
STARLINK-34062,2025-101AD,2026-06-30T18:46:21.794880,15.27598133,.00014277,43.0011,79.0631,262.7874,97.2815,0,U,64021,999,6435,.11992995E-2,.32906E-3,0
STARLINK-34051,2025-102A,2026-06-30T10:58:13.862496,14.98339092,.00042038,69.9998,190.1291,265.2241,94.8438,0,U,64022,999,6284,.15194456E-3,.1721E-4,0
STARLINK-34087,2025-102B,2026-06-30T11:22:01.820352,14.98327246,.00035889,69.9992,190.1849,267.1828,92.8921,0,U,64023,999,6285,-.86915182E-4,-.113E-4,0
STARLINK-34184,2025-102C,2026-06-30T10:33:58.524480,14.98344399,.00040018,69.9987,190.0634,270.1127,89.9574,0,U,64024,999,6273,.44593472E-3,.5234E-4,0
STARLINK-34088,2025-102D,2026-06-30T09:58:09.283008,14.98348448,.00039366,69.9995,190.3781,264.7309,95.3401,0,U,64025,999,6284,.60187507E-3,.71E-4,0
STARLINK-33992,2025-102E,2026-06-30T10:09:56.982816,14.98335158,.00038543,69.9994,190.4114,266.3761,93.6958,0,U,64026,999,6292,.22883928E-3,.2639E-4,0
STARLINK-33967,2025-102F,2026-06-30T10:57:59.651424,14.98339347,.00039556,69.9998,190.1238,268.7171,91.3535,0,U,64027,999,6278,.31935142E-3,.3721E-4,0
STARLINK-33953,2025-102G,2026-06-30T10:15:55.155744,14.98337646,.00041085,69.9998,190.0197,265.5302,94.5388,0,U,64028,999,6294,.28466928E-3,.3306E-4,0
STARLINK-33790,2025-102H,2026-06-30T11:16:16.089024,14.98336814,.0004195,69.9993,190.1647,267.4978,92.5701,0,U,64029,999,6289,.33286799E-3,.3882E-4,0
STARLINK-34030,2025-102J,2026-06-30T09:57:55.011456,14.98347386,.00041255,69.9995,190.3822,261.0178,99.0514,0,U,64030,999,6284,.55311343E-3,.6516E-4,0
STARLINK-34024,2025-102K,2026-06-30T11:10:01.024032,14.98339118,.00038655,69.9996,190.1546,264.4424,95.6294,0,U,64031,999,6278,.30225097E-3,.3516E-4,0
STARLINK-34019,2025-102L,2026-06-30T10:27:57.180672,14.98326815,.00039094,69.9997,190.0487,268.9311,91.1400,0,U,64032,999,6285,.33963293E-3,.3962E-4,0
STARLINK-34046,2025-102P,2026-06-30T10:04:09.964128,14.98334077,.00041249,69.9995,190.2763,265.4576,94.6112,0,U,64035,999,6261,.24070276E-3,.2781E-4,0
STARLINK-34085,2025-102Q,2026-06-30T11:22:16.520448,14.98338403,.00037442,69.9994,190.1780,265.1648,94.9083,0,U,64036,999,6284,.28940713E-3,.3363E-4,0
