[
  {
    "name": "STARLINK-34163",
    "noradId": "64008",
    "line1": "1 64008U 25101Q   26181.02582628  .00016215  00000+0  59734-3 0  9993",
    "line2": "2 64008  42.9980  83.7141 0001517 273.2307  86.8371 15.27586230 64231"
  },
  {
    "name": "STARLINK-34113",
    "noradId": "64010",
    "line1": "1 64010U 25101S   26181.75278815  .00016686  00000+0  61445-3 0  9990",
    "line2": "2 64010  43.0032  79.7136 0002528 282.8336  77.2233 15.27582141 64344"
  },
  {
    "name": "STARLINK-34193",
    "noradId": "64011",
    "line1": "1 64011U 25101T   26181.03225218  .00023031  00000+0  84375-3 0  9990",
    "line2": "2 64011  42.9990  83.7635 0000665 254.9109 105.1669 15.27582592 64235"
  },
  {
    "name": "STARLINK-34078",
    "noradId": "64012",
    "line1": "1 64012U 25101U   26181.77705491  .00018818  00000+0  69139-3 0  9996",
    "line2": "2 64012  43.0015  79.0271 0001215 257.9427 102.1289 15.27590550 64359"
  },
  {
    "name": "STARLINK-34182",
    "noradId": "64013",
    "line1": "1 64013U 25101V   26181.75455698  .00024805  00000+0  90746-3 0  9997",
    "line2": "2 64013  42.9975  76.2568 0001116 204.3763 155.7036 15.27594684 64389"
  },
  {
    "name": "STARLINK-34192",
    "noradId": "64014",
    "line1": "1 64014U 25101W   26181.76049848  .00018525  00000+0  68094-3 0  9998",
    "line2": "2 64014  43.0046  79.7703 0002328 276.8405  83.2181 15.27582012 64347"
  },
  {
    "name": "STARLINK-34016",
    "noradId": "64016",
    "line1": "1 64016U 25101Y   26181.77834127  .00026670  00000+0  97470-3 0  9993",
    "line2": "2 64016  43.0062  79.0413 0002094 283.4479  76.6139 15.27596252 64354"
  },
  {
    "name": "STARLINK-34162",
    "noradId": "64018",
    "line1": "1 64018U 25101AA  26181.73479066  .00028464  00000+0  10404-2 0  9992",
    "line2": "2 64018  42.9971  79.5643 0001475 268.2718  91.7965 15.27562393 64345"
  },
  {
    "name": "STARLINK-34155",
    "noradId": "64019",
    "line1": "1 64019U 25101AB  26181.02325396  .00015706  00000+0  57883-3 0  9999",
    "line2": "2 64019  42.9975  83.6875 0000902 266.2911  93.7838 15.27592887 64230"
  },
  {
    "name": "STARLINK-34141",
    "noradId": "64020",
    "line1": "1 64020U 25101AC  26181.73865066  .00013775  00000+0  50898-3 0  9995",
    "line2": "2 64020  42.9995  79.5940 0001424 261.4016  98.6674 15.27591706 64347"
  },
  {
    "name": "STARLINK-34062",
    "noradId": "64021",
    "line1": "1 64021U 25101AD  26181.78219669  .00032906  00000+0  11993-2 0  9992",
    "line2": "2 64021  43.0011  79.0631 0001428 262.7874  97.2815 15.27598133 64355"
  },
  {
    "name": "STARLINK-34051",
    "noradId": "64022",
    "line1": "1 64022U 25102A   26181.45710489  .00001721  00000+0  15194-3 0  9993",
    "line2": "2 64022  69.9998 190.1291 0004203 265.2241  94.8438 14.98339092 62844"
  },
  {
    "name": "STARLINK-34087",
    "noradId": "64023",
    "line1": "1 64023U 25102B   26181.47363218 -.00001130  00000+0 -86915-4 0  9996",
    "line2": "2 64023  69.9992 190.1849 0003588 267.1828  92.8921 14.98327246 62859"
  },
  {
    "name": "STARLINK-34184",
    "noradId": "64024",
    "line1": "1 64024U 25102C   26181.44026070  .00005234  00000+0  44593-3 0  9998",
    "line2": "2 64024  69.9987 190.0634 0004001 270.1127  89.9574 14.98344399 62738"
  },
  {
    "name": "STARLINK-34088",
    "noradId": "64025",
    "line1": "1 64025U 25102D   26181.41538522  .00007100  00000+0  60188-3 0  9998",
    "line2": "2 64025  69.9995 190.3781 0003936 264.7309  95.3401 14.98348448 62842"
  },
  {
    "name": "STARLINK-33992",
    "noradId": "64026",
    "line1": "1 64026U 25102E   26181.42357619  .00002639  00000+0  22884-3 0  9999",
    "line2": "2 64026  69.9994 190.4114 0003854 266.3761  93.6958 14.98335158 62923"
  },
  {
    "name": "STARLINK-33967",
    "noradId": "64027",
    "line1": "1 64027U 25102F   26181.45694041  .00003721  00000+0  31935-3 0  9996",
    "line2": "2 64027  69.9998 190.1238 0003955 268.7171  91.3535 14.98339347 62789"
  },
  {
    "name": "STARLINK-33953",
    "noradId": "64028",
    "line1": "1 64028U 25102G   26181.42772171  .00003306  00000+0  28467-3 0  9990",
    "line2": "2 64028  69.9998 190.0197 0004108 265.5302  94.5388 14.98337646 62944"
  },
  {
    "name": "STARLINK-33790",
    "noradId": "64029",
    "line1": "1 64029U 25102H   26181.46963066  .00003882  00000+0  33287-3 0  9995",
    "line2": "2 64029  69.9993 190.1647 0004195 267.4978  92.5701 14.98336814 62894"
  },
  {
    "name": "STARLINK-34030",
    "noradId": "64030",
    "line1": "1 64030U 25102J   26181.41522004  .00006516  00000+0  55311-3 0  9994",
    "line2": "2 64030  69.9995 190.3822 0004125 261.0178  99.0514 14.98347386 62845"
  },
  {
    "name": "STARLINK-34024",
    "noradId": "64031",
    "line1": "1 64031U 25102K   26181.46528963  .00003516  00000+0  30225-3 0  9994",
    "line2": "2 64031  69.9996 190.1546 0003865 264.4424  95.6294 14.98339118 62783"
  },
  {
    "name": "STARLINK-34019",
    "noradId": "64032",
    "line1": "1 64032U 25102L   26181.43607848  .00003962  00000+0  33963-3 0  9999",
    "line2": "2 64032  69.9997 190.0487 0003909 268.9311  91.1400 14.98326815 62859"
  },
  {
    "name": "STARLINK-34046",
    "noradId": "64035",
    "line1": "1 64035U 25102P   26181.41955977  .00002781  00000+0  24070-3 0  9996",
    "line2": "2 64035  69.9995 190.2763 0004124 265.4576  94.6112 14.98334077 62615"
  },
  {
    "name": "STARLINK-34085",
    "noradId": "64036",
    "line1": "1 64036U 25102Q   26181.47380232  .00003363  00000+0  28941-3 0  9997",
    "line2": "2 64036  69.9994 190.1780 0003744 265.1648  94.9083 14.98338403 62849"
  }
]